[{"OBJECT_NAME":"KUIPER-00025","OBJECT_ID":"2025-088R","EPOCH":"2026-03-09T06:58:33.870720","MEAN_MOTION":14.83523412,"ECCENTRICITY":4.92e-5,"INCLINATION":51.9016,"RA_OF_ASC_NODE":103.1273,"ARG_OF_PERICENTER":19.3968,"MEAN_ANOMALY":340.7015,"EPHEMERIS_TYPE":0,"CLASSIFICATION_TYPE":"U","NORAD_CAT_ID":63739,"ELEMENT_SET_NO":999,"REV_AT_EPOCH":4774,"BSTAR":0.00061010528,"MEAN_MOTION_DOT":4.845e-5,"MEAN_MOTION_DDOT":0},{"OBJECT_NAME":"CZ-4C R\/B","OBJECT_ID":"2023-111B","EPOCH":"2026-03-09T22:19:17.892480","MEAN_MOTION":14.57158686,"ECCENTRICITY":0.01373134,"INCLINATION":98.8061,"RA_OF_ASC_NODE":201.5631,"ARG_OF_PERICENTER":30.7866,"MEAN_ANOMALY":330.1294,"EPHEMERIS_TYPE":0,"CLASSIFICATION_TYPE":"U","NORAD_CAT_ID":57491,"ELEMENT_SET_NO":999,"REV_AT_EPOCH":13821,"BSTAR":0.00011021951,"MEAN_MOTION_DOT":5.06e-6,"MEAN_MOTION_DDOT":0}]
